IRIDIUM 130             
1 43073U 17083D   24100.82213415  .00000108  00000+0  31339-4 0  9990
2 43073  86.3923 295.8661 0002269  88.3426 271.8030 14.34215838329685
IRIDIUM 134             
1 43075U 17083F   24100.83481513  .00000116  00000+0  34316-4 0  9996
2 43075  86.3917 295.6998 0002261  86.1344 274.0110 14.34216157329676
IRIDIUM 141             
1 43077U 17083H   24100.07369365  .00000140  00000+0  42806-4 0  9994
2 43077  86.3915 295.9709 0002136  92.0874 268.0566 14.34218339329632
IRIDIUM 153             
1 43078U 17083J   24100.72355745  .00000123  00000+0  36953-4 0  9991
2 43078  86.3923 264.1273 0002379 103.6024 256.5437 14.34217441330837
IRIDIUM 131             
1 43079U 17083K   24100.82847534  .00000114  00000+0  33661-4 0  9998
2 43079  86.3920 295.7879 0001969  91.1938 268.9483 14.34215846329671
